ISS (ZARYA)
1 25544U 98067A   26278.82086582  .00005030  00000+0  10025-3 0  9992
2 25544  51.6314 112.5837 0006860 227.0704 132.9710 15.48745232588905
CSS (TIANHE)
1 48274U 21035A   26278.70857609  .00020069  00000+0  24151-3 0  9995
2 48274  41.4702  10.8058 0001646 335.8013  24.2748 15.60344883310426
FREGAT DEB
1 49271U 11037PF  26278.49409479  .00014953  00000+0  20662-1 0  9994
2 49271  51.6493  29.4126 0943859 169.4826 192.7383 12.44997835238773
HRC MONOBLOCK CAMERA
1 66052U 98067XS  26278.86050577  .00666523  24339-3  72250-3 0  9993
2 66052  51.6097  60.6131 0008411 301.1517  58.8672 16.09218333 55561
SZ-21 MODULE
1 66515U 25246C   26277.89318129  .00096060  00000+0  33754-3 0  9992
2 66515  41.4705 338.7272 0009794  90.1531 270.0440 15.88030674 51113
KNACKSAT-2
1 67683U 98067YA  26278.73610933  .00074685  00000+0  57028-3 0  9991
2 67683  51.6237  93.9661 0008670 255.5755 104.4281 15.71467095 37594
