{"type":"FeatureCollection","metadata":{"generated":1791269766000,"url":"https://earthquake.usgs.gov/earthquakes/feed/v1.0/summary/4.5_week.geojson","title":"USGS Magnitude 4.5+ Earthquakes, Past Week","count":119},"features":[{"type":"Feature","id":"us6000tzv6","properties":{"mag":4.7,"place":"36 km WNW of Ollag\u00fce, Chile","time":1791267393173,"updated":1791268566040,"status":"reviewed"},"geometry":{"type":"Point","coordinates":[-68.6026,-21.1586,122.011]}},{"type":"Feature","id":"us6000tzus","properties":{"mag":4.9,"place":"State of Yap, Federated States of Micronesia","time":1791261628098,"updated":1791262737040,"status":"reviewed"},"geometry":{"type":"Point","coordinates":[144.4068,6.7818,10]}},{"type":"Feature","id":"us6000tzuq","properties":{"mag":4.6,"place":"Izu Islands, Japan region","time":1791260916912,"updated":1791262292040,"status":"reviewed"},"geometry":{"type":"Point","coordinates":[142.845,29.02,10]}},{"type":"Feature","id":"us6000tzuj","properties":{"mag":4.8,"place":"86 km N of Ruteng, Indonesia","time":1791258163999,"updated":1791259246040,"status":"reviewed"},"geometry":{"type":"Point","coordinates":[120.3932,-7.8323,8.653]}},{"type":"Feature","id":"us6000tzth","properties":{"mag":4.6,"place":"31 km S of Tezpur, India","time":1791240822181,"updated":1791255504903,"status":"reviewed"},"geometry":{"type":"Point","coordinates":[92.8359,26.3539,10]}},{"type":"Feature","id":"us6000tztg","properties":{"mag":4.8,"place":"146 km WNW of Panguna, Papua New Guinea","time":1791240533669,"updated":1791254819040,"status":"reviewed"},"geometry":{"type":"Point","coordinates":[154.2682,-5.7949,142.487]}},{"type":"Feature","id":"us6000tzss","properties":{"mag":4.5,"place":"39 km SW of Tambolaka, Indonesia","time":1791236285713,"updated":1791253281040,"status":"reviewed"},"geometry":{"type":"Point","coordinates":[118.9729,-9.6687,35]}},{"type":"Feature","id":"us6000tzsc","properties":{"mag":5,"place":"south of the Fiji Islands","time":1791231779243,"updated":1791233096040,"status":"reviewed"},"geometry":{"type":"Point","coordinates":[179.8108,-24.4235,518.638]}},{"type":"Feature","id":"us6000tzry","properties":{"mag":4.6,"place":"12 km ENE of Metah\u0101ra, Ethiopia","time":1791229675779,"updated":1791230685040,"status":"reviewed"},"geometry":{"type":"Point","coordinates":[40.0091,8.9608,10]}},{"type":"Feature","id":"us6000tzpq","properties":{"mag":4.7,"place":"105 km WNW of H\u00f6fn, Iceland","time":1791221304530,"updated":1791222845040,"status":"reviewed"},"geometry":{"type":"Point","coordinates":[-17.3115,64.5091,10]}},{"type":"Feature","id":"us6000tznu","properties":{"mag":4.7,"place":"75 km NNE of Yonakuni, Japan","time":1791207045560,"updated":1791209516040,"status":"reviewed"},"geometry":{"type":"Point","coordinates":[123.2696,25.1037,156.219]}},{"type":"Feature","id":"us6000tznh","properties":{"mag":4.6,"place":"21 km S of Luganville, Vanuatu","time":1791200827753,"updated":1791265536792,"status":"reviewed"},"geometry":{"type":"Point","coordinates":[167.1484,-15.7157,35]}},{"type":"Feature","id":"us6000tzna","properties":{"mag":5,"place":"187 km ENE of Saipan, Northern Mariana Islands","time":1791197529844,"updated":1791262943932,"status":"reviewed"},"geometry":{"type":"Point","coordinates":[147.395,15.8046,10]}},{"type":"Feature","id":"us6000tzmt","properties":{"mag":4.9,"place":"Volcano Islands, Japan region","time":1791184418006,"updated":1791186032040,"status":"reviewed"},"geometry":{"type":"Point","coordinates":[144.0442,22.8488,35]}},{"type":"Feature","id":"us6000tzmk","properties":{"mag":4.8,"place":"191 km ESE of Sarangani, Philippines","time":1791180855888,"updated":1791182440040,"status":"reviewed"},"geometry":{"type":"Point","coordinates":[126.9394,4.4975,51.291]}},{"type":"Feature","id":"us6000tzme","properties":{"mag":5,"place":"71 km E of \u2018Ohonua, Tonga","time":1791178004808,"updated":1791179210040,"status":"reviewed"},"geometry":{"type":"Point","coordinates":[-174.2679,-21.4208,10]}},{"type":"Feature","id":"us6000tzm7","properties":{"mag":4.5,"place":"Kuril Islands","time":1791173783636,"updated":1791174967040,"status":"reviewed"},"geometry":{"type":"Point","coordinates":[151.8684,45.953,35]}},{"type":"Feature","id":"us6000tzlp","properties":{"mag":5.3,"place":"central Mid-Atlantic Ridge","time":1791163130392,"updated":1791164149040,"status":"reviewed"},"geometry":{"type":"Point","coordinates":[-19.965,-0.4325,10]}},{"type":"Feature","id":"us6000tzkn","properties":{"mag":4.8,"place":"32 km SSE of Jurm, Afghanistan","time":1791145645597,"updated":1791173978668,"status":"reviewed"},"geometry":{"type":"Point","coordinates":[71.0216,36.611,248.906]}},{"type":"Feature","id":"us6000tzj8","properties":{"mag":5,"place":"295 km S of Burica, Panama","time":1791122770385,"updated":1791124122040,"status":"reviewed"},"geometry":{"type":"Point","coordinates":[-82.7171,5.3695,10]}},{"type":"Feature","id":"us6000tziz","properties":{"mag":4.6,"place":"110 km S of Dampit, Indonesia","time":1791117407744,"updated":1791119117040,"status":"reviewed"},"geometry":{"type":"Point","coordinates":[112.6395,-9.2014,52.773]}},{"type":"Feature","id":"us6000tzip","properties":{"mag":5,"place":"21 km ESE of Feke, Turkey","time":1791114203167,"updated":1791224459879,"status":"reviewed"},"geometry":{"type":"Point","coordinates":[36.1272,37.7292,10]}},{"type":"Feature","id":"us6000tzil","properties":{"mag":4.7,"place":"22 km E of Feke, Turkey","time":1791113786451,"updated":1791118593040,"status":"reviewed"},"geometry":{"type":"Point","coordinates":[36.1685,37.7757,10]}},{"type":"Feature","id":"us6000tzif","properties":{"mag":4.7,"place":"21 km SSE of Saimbeyli, Turkey","time":1791112766314,"updated":1791185088620,"status":"reviewed"},"geometry":{"type":"Point","coordinates":[36.1749,37.8028,10]}},{"type":"Feature","id":"us6000tzid","properties":{"mag":5.1,"place":"Volcano Islands, Japan region","time":1791112368352,"updated":1791221615040,"status":"reviewed"},"geometry":{"type":"Point","coordinates":[144.6508,22.8191,10]}},{"type":"Feature","id":"us6000tzic","properties":{"mag":4.6,"place":"121 km SW of Kokopo, Papua New Guinea","time":1791112187398,"updated":1791116316040,"status":"reviewed"},"geometry":{"type":"Point","coordinates":[151.4257,-5.0439,162.143]}},{"type":"Feature","id":"us6000tzi8","properties":{"mag":4.8,"place":"43 km N of Ruteng, Indonesia","time":1791111147344,"updated":1791112480040,"status":"reviewed"},"geometry":{"type":"Point","coordinates":[120.5325,-8.2236,10]}},{"type":"Feature","id":"us6000tzi5","properties":{"mag":5,"place":"37 km N of Ruteng, Indonesia","time":1791108787298,"updated":1791109868040,"status":"reviewed"},"geometry":{"type":"Point","coordinates":[120.4532,-8.2698,10]}},{"type":"Feature","id":"us6000tzh0","properties":{"mag":4.6,"place":"121 km WNW of Chauk, Burma (Myanmar)","time":1791093306861,"updated":1791095004040,"status":"reviewed"},"geometry":{"type":"Point","coordinates":[93.7503,21.3382,58.258]}},{"type":"Feature","id":"us6000tzg0","properties":{"mag":4.9,"place":"South Sandwich Islands region","time":1791078472030,"updated":1791083527040,"status":"reviewed"},"geometry":{"type":"Point","coordinates":[-23.3522,-58.1594,10]}},{"type":"Feature","id":"us6000tzfv","properties":{"mag":4.9,"place":"21 km NE of Lae, Papua New Guinea","time":1791077926078,"updated":1791079052040,"status":"reviewed"},"geometry":{"type":"Point","coordinates":[147.1353,-6.5916,94.221]}},{"type":"Feature","id":"us6000tzfg","properties":{"mag":5.3,"place":"81 km SSW of Banda Aceh, Indonesia","time":1791070654235,"updated":1791157367273,"status":"reviewed"},"geometry":{"type":"Point","coordinates":[95.1622,4.8247,56.274]}},{"type":"Feature","id":"us6000tzf7","properties":{"mag":4.5,"place":"293 km SSE of Tabiauan, Philippines","time":1791069275782,"updated":1791070785040,"status":"reviewed"},"geometry":{"type":"Point","coordinates":[122.9296,3.5895,575.042]}},{"type":"Feature","id":"us6000tzer","properties":{"mag":5.9,"place":"39 km WSW of Tambolaka, Indonesia","time":1791068155358,"updated":1791224735012,"status":"reviewed"},"geometry":{"type":"Point","coordinates":[118.9078,-9.5672,45.951]}},{"type":"Feature","id":"us6000tze6","properties":{"mag":4.5,"place":"121 km SW of Puerto Madero, Mexico","time":1791059625577,"updated":1791060492040,"status":"reviewed"},"geometry":{"type":"Point","coordinates":[-93.3523,14.1052,10]}},{"type":"Feature","id":"us6000tze2","properties":{"mag":5.1,"place":"182 km SSE of Vilyuchinsk, Russia","time":1791057644104,"updated":1791058934040,"status":"reviewed"},"geometry":{"type":"Point","coordinates":[159.8296,51.5457,10]}},{"type":"Feature","id":"us6000tzdp","properties":{"mag":4.9,"place":"72 km NE of Sittwe, Burma (Myanmar)","time":1791051166916,"updated":1791052492040,"status":"reviewed"},"geometry":{"type":"Point","coordinates":[93.3991,20.6061,35]}},{"type":"Feature","id":"us6000tzdj","properties":{"mag":4.6,"place":"76 km NNE of Lae, Papua New Guinea","time":1791048252545,"updated":1791049953040,"status":"reviewed"},"geometry":{"type":"Point","coordinates":[147.1678,-6.0496,81.86]}},{"type":"Feature","id":"us6000tzcm","properties":{"mag":4.5,"place":"Kermadec Islands region","time":1791035471299,"updated":1791037310040,"status":"reviewed"},"geometry":{"type":"Point","coordinates":[-179.4827,-27.4948,453.487]}},{"type":"Feature","id":"us6000tzb5","properties":{"mag":4.8,"place":"112 km S of Koshima, Japan","time":1791007521157,"updated":1791008752040,"status":"reviewed"},"geometry":{"type":"Point","coordinates":[130.6125,29.221,37.466]}},{"type":"Feature","id":"us6000tzal","properties":{"mag":5,"place":"163 km SE of Petropavlovsk-Kamchatsky, Russia","time":1790996346296,"updated":1790997259040,"status":"reviewed"},"geometry":{"type":"Point","coordinates":[160.4217,52.0836,10]}},{"type":"Feature","id":"us6000tz9w","properties":{"mag":4.5,"place":"7 km NNW of Ibusuki, Japan","time":1790986298239,"updated":1791010398579,"status":"reviewed"},"geometry":{"type":"Point","coordinates":[130.6093,31.2953,126.853]}},{"type":"Feature","id":"us6000tz9v","properties":{"mag":4.8,"place":"121 km SSE of Vilyuchinsk, Russia","time":1790985698784,"updated":1790990350040,"status":"reviewed"},"geometry":{"type":"Point","coordinates":[159.2731,51.9749,38.69]}},{"type":"Feature","id":"us6000tz9t","properties":{"mag":4.6,"place":"174 km SSE of Vilyuchinsk, Russia","time":1790985566824,"updated":1790989234040,"status":"reviewed"},"geometry":{"type":"Point","coordinates":[159.7182,51.5846,10]}},{"type":"Feature","id":"us6000tz9s","properties":{"mag":4.7,"place":"153 km SSE of Vilyuchinsk, Russia","time":1790985253503,"updated":1790988526040,"status":"reviewed"},"geometry":{"type":"Point","coordinates":[159.4679,51.7161,35]}},{"type":"Feature","id":"us6000tzit","properties":{"mag":4.6,"place":"southern East Pacific Rise","time":1790980733650,"updated":1791116211040,"status":"reviewed"},"geometry":{"type":"Point","coordinates":[-116.9235,-49.3851,10]}},{"type":"Feature","id":"us6000tz8s","properties":{"mag":4.6,"place":"125 km SSE of Vilyuchinsk, Russia","time":1790975646969,"updated":1791160020040,"status":"reviewed"},"geometry":{"type":"Point","coordinates":[159.3701,51.9667,35]}},{"type":"Feature","id":"us6000tz8l","properties":{"mag":5,"place":"171 km SE of Vilyuchinsk, Russia","time":1790974455391,"updated":1790975850040,"status":"reviewed"},"geometry":{"type":"Point","coordinates":[159.8843,51.6886,30.93]}},{"type":"Feature","id":"us6000tzd5","properties":{"mag":4.7,"place":"52 km SSW of Vilyuchinsk, Russia","time":1790973501109,"updated":1791043327040,"status":"reviewed"},"geometry":{"type":"Point","coordinates":[158.2168,52.4691,89.108]}},{"type":"Feature","id":"us6000tz8g","properties":{"mag":4.6,"place":"46 km SSW of Paratunka, Russia","time":1790973468318,"updated":1791043156040,"status":"reviewed"},"geometry":{"type":"Point","coordinates":[158.0496,52.5605,74.647]}},{"type":"Feature","id":"us6000tz8f","properties":{"mag":4.5,"place":"86 km E of Noda, Japan","time":1790973296862,"updated":1791036300040,"status":"reviewed"},"geometry":{"type":"Point","coordinates":[142.8232,40.0341,49.952]}},{"type":"Feature","id":"us6000tz8c","properties":{"mag":5.1,"place":"199 km SSE of Vilyuchinsk, Russia","time":1790972847120,"updated":1790979275040,"status":"reviewed"},"geometry":{"type":"Point","coordinates":[159.665,51.3149,10]}},{"type":"Feature","id":"us6000tz8b","properties":{"mag":4.6,"place":"67 km ESE of Kokopo, Papua New Guinea","time":1790972762878,"updated":1790976710040,"status":"reviewed"},"geometry":{"type":"Point","coordinates":[152.8363,-4.565,86.736]}},{"type":"Feature","id":"us6000tz8a","properties":{"mag":4.9,"place":"136 km SSE of Vilyuchinsk, Russia","time":1790972729894,"updated":1790974821040,"status":"reviewed"},"geometry":{"type":"Point","coordinates":[159.3971,51.862,38.829]}},{"type":"Feature","id":"us6000tz7b","properties":{"mag":5,"place":"179 km SSE of Vilyuchinsk, Russia","time":1790965520940,"updated":1790966786040,"status":"reviewed"},"geometry":{"type":"Point","coordinates":[159.8307,51.5775,10]}},{"type":"Feature","id":"us6000tz6z","properties":{"mag":4.5,"place":"56 km SSE of Mawlaik, Burma (Myanmar)","time":1790960133449,"updated":1791052778040,"status":"reviewed"},"geometry":{"type":"Point","coordinates":[94.5469,23.1453,103.866]}},{"type":"Feature","id":"us6000tz62","properties":{"mag":5.8,"place":"165 km SSE of Vilyuchinsk, Russia","time":1790958881010,"updated":1791045609993,"status":"reviewed"},"geometry":{"type":"Point","coordinates":[159.7398,51.6873,29.477]}},{"type":"Feature","id":"us6000tz5h","properties":{"mag":5,"place":"26 km SSW of G\u00fciria, Venezuela","time":1790958685762,"updated":1791023694988,"status":"reviewed"},"geometry":{"type":"Point","coordinates":[-62.4223,10.3698,9.763]}},{"type":"Feature","id":"us6000tz20","properties":{"mag":4.6,"place":"20 km ESE of Petropavlovsk-Kamchatsky, Russia","time":1790956930426,"updated":1791052081040,"status":"reviewed"},"geometry":{"type":"Point","coordinates":[158.9242,53.0163,99.084]}},{"type":"Feature","id":"us6000tz1y","properties":{"mag":4.7,"place":"5 km NNE of Korumburra, Australia","time":1790956899581,"updated":1790971152074,"status":"reviewed"},"geometry":{"type":"Point","coordinates":[145.8401,-38.3802,10]}},{"type":"Feature","id":"us6000tz1r","properties":{"mag":4.5,"place":"7 km NE of Chalandr\u00edtsa, Greece","time":1790954802710,"updated":1791050980040,"status":"reviewed"},"geometry":{"type":"Point","coordinates":[21.8509,38.1524,10]}},{"type":"Feature","id":"us6000tz1q","properties":{"mag":4.8,"place":"78 km WSW of San Nicolas, Philippines","time":1790953819729,"updated":1790955335040,"status":"reviewed"},"geometry":{"type":"Point","coordinates":[119.4593,14.571,10]}},{"type":"Feature","id":"us6000tz1c","properties":{"mag":5,"place":"6 km E of Inglewood, New Zealand","time":1790949435838,"updated":1791145505936,"status":"reviewed"},"geometry":{"type":"Point","coordinates":[174.2598,-39.1598,10]}},{"type":"Feature","id":"us6000tz0x","properties":{"mag":5,"place":"63 km SW of Panguna, Papua New Guinea","time":1790939654383,"updated":1790940834040,"status":"reviewed"},"geometry":{"type":"Point","coordinates":[155.0136,-6.6368,38.25]}},{"type":"Feature","id":"us6000tyzx","properties":{"mag":4.8,"place":"35 km SSW of El Colomo, Mexico","time":1790924015007,"updated":1790925115040,"status":"reviewed"},"geometry":{"type":"Point","coordinates":[-104.3753,18.7561,23.972]}},{"type":"Feature","id":"us6000tyzy","properties":{"mag":4.5,"place":"101 km NE of Ruteng, Indonesia","time":1790923686954,"updated":1790925874040,"status":"reviewed"},"geometry":{"type":"Point","coordinates":[121.0985,-7.9511,10]}},{"type":"Feature","id":"us6000tyzt","properties":{"mag":4.8,"place":"192 km WNW of Tobelo, Indonesia","time":1790919535084,"updated":1790921544040,"status":"reviewed"},"geometry":{"type":"Point","coordinates":[126.4944,2.5781,10]}},{"type":"Feature","id":"us6000tyzl","properties":{"mag":5.1,"place":"159 km SE of Gizo, Solomon Islands","time":1790916293423,"updated":1790917177040,"status":"reviewed"},"geometry":{"type":"Point","coordinates":[158.0215,-8.9326,10]}},{"type":"Feature","id":"us6000tyzi","properties":{"mag":5,"place":"south of the Fiji Islands","time":1790915225754,"updated":1790916138040,"status":"reviewed"},"geometry":{"type":"Point","coordinates":[178.6446,-24.7752,557.245]}},{"type":"Feature","id":"us6000tyzg","properties":{"mag":4.9,"place":"97 km S of Panguna, Papua New Guinea","time":1790914258487,"updated":1790916591040,"status":"reviewed"},"geometry":{"type":"Point","coordinates":[155.6075,-7.1852,35]}},{"type":"Feature","id":"us6000tzim","properties":{"mag":4.7,"place":"49 km S of Lata, Solomon Islands","time":1790906554584,"updated":1791114617040,"status":"reviewed"},"geometry":{"type":"Point","coordinates":[165.794,-11.1735,10]}},{"type":"Feature","id":"us6000tyxk","properties":{"mag":4.5,"place":"2 km NE of Satte, Japan","time":1790888501707,"updated":1791042061152,"status":"reviewed"},"geometry":{"type":"Point","coordinates":[139.7487,36.0904,65.032]}},{"type":"Feature","id":"us6000tyx0","properties":{"mag":5.1,"place":"176 km SE of Lata, Solomon Islands","time":1790884834322,"updated":1790886037040,"status":"reviewed"},"geometry":{"type":"Point","coordinates":[167.0918,-11.6728,10]}},{"type":"Feature","id":"us6000tywu","properties":{"mag":5.1,"place":"171 km SE of Lata, Solomon Islands","time":1790883481795,"updated":1790884982040,"status":"reviewed"},"geometry":{"type":"Point","coordinates":[166.961,-11.7706,10]}},{"type":"Feature","id":"us6000tyw9","properties":{"mag":4.6,"place":"83 km NE of Ruteng, Indonesia","time":1790876231734,"updated":1790878530040,"status":"reviewed"},"geometry":{"type":"Point","coordinates":[120.9009,-7.9896,10]}},{"type":"Feature","id":"us6000tyw6","properties":{"mag":5.1,"place":"108 km ENE of Miyako, Japan","time":1790875040097,"updated":1790876954202,"status":"reviewed"},"geometry":{"type":"Point","coordinates":[143.1734,39.8778,35]}},{"type":"Feature","id":"us6000tyuf","properties":{"mag":4.8,"place":"127 km S of False Pass, Alaska","time":1790865979877,"updated":1790888901440,"status":"reviewed"},"geometry":{"type":"Point","coordinates":[-163.7238,53.7226,35]}},{"type":"Feature","id":"us6000tyua","properties":{"mag":5,"place":"176 km NNE of Ruteng, Indonesia","time":1790864399078,"updated":1790865515040,"status":"reviewed"},"geometry":{"type":"Point","coordinates":[120.9136,-7.0805,10]}},{"type":"Feature","id":"us6000tytg","properties":{"mag":5.3,"place":"0 km NNE of Y\u014dkaichiba, Japan","time":1790857631864,"updated":1790902738566,"status":"reviewed"},"geometry":{"type":"Point","coordinates":[140.5507,35.7025,41.649]}},{"type":"Feature","id":"us6000tysk","properties":{"mag":4.5,"place":"8 km ENE of Zaqatala, Azerbaijan","time":1790851902236,"updated":1791181197040,"status":"reviewed"},"geometry":{"type":"Point","coordinates":[46.7292,41.6704,10]}},{"type":"Feature","id":"us6000tysi","properties":{"mag":4.7,"place":"northern Mid-Atlantic Ridge","time":1790848995128,"updated":1790853124040,"status":"reviewed"},"geometry":{"type":"Point","coordinates":[-41.428,31.0444,10]}},{"type":"Feature","id":"us6000tyr4","properties":{"mag":4.9,"place":"145 km ESE of Neiafu, Tonga","time":1790844344312,"updated":1790845949040,"status":"reviewed"},"geometry":{"type":"Point","coordinates":[-172.7038,-19.141,10]}},{"type":"Feature","id":"us6000tyqy","properties":{"mag":4.5,"place":"49 km SSE of Toktogul, Kyrgyzstan","time":1790842679307,"updated":1790848661040,"status":"reviewed"},"geometry":{"type":"Point","coordinates":[73.1419,41.4538,10]}},{"type":"Feature","id":"us6000tyqx","properties":{"mag":4.6,"place":"northern Mid-Atlantic Ridge","time":1790840406605,"updated":1790844197040,"status":"reviewed"},"geometry":{"type":"Point","coordinates":[-41.5851,31.2357,10]}},{"type":"Feature","id":"us6000tyq7","properties":{"mag":5,"place":"38 km WSW of Palimbang, Philippines","time":1790832850634,"updated":1790846730805,"status":"reviewed"},"geometry":{"type":"Point","coordinates":[123.8599,6.1116,10]}},{"type":"Feature","id":"us6000typ5","properties":{"mag":4.5,"place":"272 km WSW of Tual, Indonesia","time":1790820559068,"updated":1790826978040,"status":"reviewed"},"geometry":{"type":"Point","coordinates":[130.346,-6.154,94.793]}},{"type":"Feature","id":"us6000typ0","properties":{"mag":4.6,"place":"45 km ENE of Luwuk, Indonesia","time":1790818283443,"updated":1790819410040,"status":"reviewed"},"geometry":{"type":"Point","coordinates":[123.1839,-0.863,116.392]}},{"type":"Feature","id":"us6000tyny","properties":{"mag":5.2,"place":"7 km ESE of Baghl\u0101n, Afghanistan","time":1790818160694,"updated":1790840466409,"status":"reviewed"},"geometry":{"type":"Point","coordinates":[68.7818,36.0991,49.602]}},{"type":"Feature","id":"us6000tynp","properties":{"mag":4.9,"place":"northern Mid-Atlantic Ridge","time":1790814502644,"updated":1790815524040,"status":"reviewed"},"geometry":{"type":"Point","coordinates":[-43.0353,19.2756,10]}},{"type":"Feature","id":"us6000tymj","properties":{"mag":5.6,"place":"94 km SW of Tamarindo, Costa Rica","time":1790805326169,"updated":1790985436749,"status":"reviewed"},"geometry":{"type":"Point","coordinates":[-86.5063,9.7526,8]}},{"type":"Feature","id":"us6000tym9","properties":{"mag":4.6,"place":"131 km SE of Itoman, Japan","time":1790802717694,"updated":1790805205040,"status":"reviewed"},"geometry":{"type":"Point","coordinates":[128.5077,25.2167,10]}},{"type":"Feature","id":"us6000tykw","properties":{"mag":4.9,"place":"136 km SE of Petropavlovsk-Kamchatsky, Russia","time":1790793382667,"updated":1790794791040,"status":"reviewed"},"geometry":{"type":"Point","coordinates":[160.2895,52.3676,31.929]}},{"type":"Feature","id":"us6000tyku","properties":{"mag":5,"place":"142 km SE of Petropavlovsk-Kamchatsky, Russia","time":1790792479257,"updated":1790793462040,"status":"reviewed"},"geometry":{"type":"Point","coordinates":[160.3332,52.3167,35]}},{"type":"Feature","id":"us6000tyjm","properties":{"mag":4.6,"place":"83 km S of Yonakuni, Japan","time":1790769778808,"updated":1790852325040,"status":"reviewed"},"geometry":{"type":"Point","coordinates":[122.8749,23.725,10]}},{"type":"Feature","id":"us6000tyjg","properties":{"mag":4.5,"place":"271 km S of Dunhuang, China","time":1790767291407,"updated":1790930412040,"status":"reviewed"},"geometry":{"type":"Point","coordinates":[95.2949,37.7681,10]}},{"type":"Feature","id":"us6000tyjb","properties":{"mag":5,"place":"27 km N of Kupang, Indonesia","time":1790765930586,"updated":1790767784285,"status":"reviewed"},"geometry":{"type":"Point","coordinates":[123.6462,-9.9243,19.368]}},{"type":"Feature","id":"us6000tyit","properties":{"mag":5.1,"place":"121 km S of Kokopo, Papua New Guinea","time":1790756117486,"updated":1790757071040,"status":"reviewed"},"geometry":{"type":"Point","coordinates":[152.1328,-5.435,28.026]}},{"type":"Feature","id":"us6000tyik","properties":{"mag":5.2,"place":"Balleny Islands region","time":1790752036005,"updated":1790754131040,"status":"reviewed"},"geometry":{"type":"Point","coordinates":[171.414,-63.5619,10]}},{"type":"Feature","id":"us6000tyid","properties":{"mag":5,"place":"83 km NE of Tadine, New Caledonia","time":1790751003339,"updated":1790752024040,"status":"reviewed"},"geometry":{"type":"Point","coordinates":[168.4237,-20.988,10]}},{"type":"Feature","id":"us6000tyhn","properties":{"mag":4.6,"place":"3 km W of Th\u00edvai, Greece","time":1790745659067,"updated":1790758891040,"status":"reviewed"},"geometry":{"type":"Point","coordinates":[23.2795,38.3276,9.833]}},{"type":"Feature","id":"us6000tyhk","properties":{"mag":5.6,"place":"74 km S of Yonakuni, Japan","time":1790744424971,"updated":1790831202559,"status":"reviewed"},"geometry":{"type":"Point","coordinates":[122.9149,23.8027,10.792]}},{"type":"Feature","id":"us6000tyhi","properties":{"mag":5.4,"place":"Balleny Islands region","time":1790743686031,"updated":1790830415538,"status":"reviewed"},"geometry":{"type":"Point","coordinates":[169.2156,-63.0088,10]}},{"type":"Feature","id":"us6000tyh0","properties":{"mag":4.5,"place":"112 km SSW of Banda Aceh, Indonesia","time":1790735750369,"updated":1790737310040,"status":"reviewed"},"geometry":{"type":"Point","coordinates":[94.8515,4.6488,33.873]}},{"type":"Feature","id":"us6000tygz","properties":{"mag":4.5,"place":"104 km SSE of Sarangani, Philippines","time":1790735444716,"updated":1790736759040,"status":"reviewed"},"geometry":{"type":"Point","coordinates":[125.7472,4.5021,156.847]}},{"type":"Feature","id":"us6000tygs","properties":{"mag":4.8,"place":"18 km SW of Tayaman, Philippines","time":1790732045751,"updated":1790747410011,"status":"reviewed"},"geometry":{"type":"Point","coordinates":[120.4734,13.0922,10]}},{"type":"Feature","id":"us6000tygq","properties":{"mag":4.8,"place":"75 km NE of Tadine, New Caledonia","time":1790731067844,"updated":1790732108040,"status":"reviewed"},"geometry":{"type":"Point","coordinates":[168.3284,-21.0085,10]}},{"type":"Feature","id":"us6000tyfk","properties":{"mag":4.5,"place":"15 km SW of San Antonio, Colombia","time":1790718629969,"updated":1790720530040,"status":"reviewed"},"geometry":{"type":"Point","coordinates":[-75.5906,3.8311,10]}},{"type":"Feature","id":"us6000tyf0","properties":{"mag":4.7,"place":"49 km N of Dicabisagan, Philippines","time":1790714750983,"updated":1790716331040,"status":"reviewed"},"geometry":{"type":"Point","coordinates":[122.4136,17.5267,10]}},{"type":"Feature","id":"us6000tycv","properties":{"mag":4.7,"place":"50 km N of Fangale\u2019ounga, Tonga","time":1790698382568,"updated":1790778029040,"status":"reviewed"},"geometry":{"type":"Point","coordinates":[-174.2536,-19.2971,56.776]}},{"type":"Feature","id":"us6000tycz","properties":{"mag":4.6,"place":"West Chile Rise","time":1790695878586,"updated":1790704528040,"status":"reviewed"},"geometry":{"type":"Point","coordinates":[-91.4145,-40.9373,10]}},{"type":"Feature","id":"us6000tyck","properties":{"mag":4.8,"place":"South Sandwich Islands region","time":1790695038167,"updated":1790776833040,"status":"reviewed"},"geometry":{"type":"Point","coordinates":[-25.9552,-58.7473,114.229]}},{"type":"Feature","id":"us6000tyc9","properties":{"mag":4.9,"place":"61 km NW of Pante Makasar, Timor Leste","time":1790691245529,"updated":1790774711040,"status":"reviewed"},"geometry":{"type":"Point","coordinates":[123.9679,-8.8321,153.006]}},{"type":"Feature","id":"us6000tyc3","properties":{"mag":5.5,"place":"southern Mid-Atlantic Ridge","time":1790687169941,"updated":1790789044040,"status":"reviewed"},"geometry":{"type":"Point","coordinates":[-16.0771,-35.2758,10]}},{"type":"Feature","id":"us6000tyc1","properties":{"mag":5.4,"place":"99 km SSE of Pangai, Tonga","time":1790685635064,"updated":1790772361098,"status":"reviewed"},"geometry":{"type":"Point","coordinates":[-174.0813,-20.6773,10]}},{"type":"Feature","id":"nc75444322","properties":{"mag":4.77,"place":"97 km W of Petrolia, CA","time":1790681799240,"updated":1791200803010,"status":"reviewed"},"geometry":{"type":"Point","coordinates":[-125.418333333333,40.4225,10]}},{"type":"Feature","id":"us6000tybs","properties":{"mag":4.8,"place":"98 km SW of Port-Vila, Vanuatu","time":1790681268406,"updated":1790682345040,"status":"reviewed"},"geometry":{"type":"Point","coordinates":[167.5446,-18.2306,10]}},{"type":"Feature","id":"us6000tybr","properties":{"mag":5,"place":"77 km ENE of Tadine, New Caledonia","time":1790678577409,"updated":1790679559040,"status":"reviewed"},"geometry":{"type":"Point","coordinates":[168.5924,-21.3447,10]}},{"type":"Feature","id":"us6000tybk","properties":{"mag":4.5,"place":"96 km ENE of Alianza Cristiana, Peru","time":1790677334613,"updated":1790678869040,"status":"reviewed"},"geometry":{"type":"Point","coordinates":[-75.6413,-3.1213,134.763]}},{"type":"Feature","id":"us6000tyb6","properties":{"mag":4.5,"place":"95 km SSW of Oc\u00f3s, Guatemala","time":1790670116906,"updated":1790683567040,"status":"reviewed"},"geometry":{"type":"Point","coordinates":[-92.6345,13.7623,41.479]}}]}